NORAD_CAT_ID,OBJECT_NAME,OBJECT_TYPE,EPOCH,MEAN_MOTION,ECCENTRICITY,INCLINATION,RA_OF_ASC_NODE,ARG_OF_PERICENTER,MEAN_ANOMALY,BSTAR,MEAN_MOTION_DOT,MEAN_MOTION_DDOT,TLE_LINE0,TLE_LINE1,TLE_LINE2,SEMIMAJOR_AXIS,PERIOD,APOGEE,PERIGEE,DECAYED
55748.0,STARLINK-5580,PAYLOAD,2024-02-25 03:31:48,14.98337675,0.0002858,70.0007,319.2327,266.5769,93.5063,4.6661e-05,4.64e-06,0.0,0 STARLINK-5580,1 55748U 23028H   24056.14709200  .00000464  00000-0  46661-4 0  9995,2 55748  70.0007 319.2327 0002858 266.5769  93.5063 14.98337675 54666,6950.169,96.107,574.021,570.048,0.0
55748.0,STARLINK-5580,PAYLOAD,2024-02-25 22:45:25,14.98334358,0.0002841,70.0007,317.2129,266.2524,93.831,0.00011437,1.272e-05,0.0,0 STARLINK-5580,1 55748U 23028H   24056.94820998  .00001272  00000-0  11437-3 0  9991,2 55748  70.0007 317.2129 0002841 266.2524  93.8310 14.98334358 54788,6950.179,96.107,574.019,570.07,0.0
55748.0,STARLINK-5580,PAYLOAD,2024-02-26 03:33:49,14.98340988,0.000293,70.0004,316.7083,267.3185,92.7639,0.00014116,1.592e-05,0.0,0 STARLINK-5580,1 55748U 23028H   24057.14848399  .00001592  00000-0  14116-3 0  9991,2 55748  70.0004 316.7083 0002930 267.3185  92.7639 14.98340988 54814,6950.159,96.106,574.06,569.988,0.0
55748.0,STARLINK-5580,PAYLOAD,2024-02-26 19:35:10,14.98329768,0.0002216,70.0028,315.0268,268.908,91.1825,-5.9124e-05,-7.98e-06,0.0,0 STARLINK-5580,1 55748U 23028H   24057.81609762 -.00000798  00000-0 -59124-4 0  9992,2 55748  70.0028 315.0268 0002216 268.9080  91.1825 14.98329768 54919,6950.194,96.107,573.599,570.518,0.0
55748.0,STARLINK-5580,PAYLOAD,2024-02-26 22:47:27,14.98327184,0.0002681,70.0008,314.6891,267.2194,92.8659,-7.8479e-05,-1.029e-05,0.0,0 STARLINK-5580,1 55748U 23028H   24057.94961838 -.00001029  00000-0 -78479-4 0  9993,2 55748  70.0008 314.6891 0002681 267.2194  92.8659 14.98327184 54933,6950.202,96.107,573.93,570.203,0.0
55748.0,STARLINK-5580,PAYLOAD,2024-02-27 10:00:23,14.98330258,0.0002812,70.0002,313.5104,271.0064,89.0773,-3.9004e-05,-5.58e-06,0.0,0 STARLINK-5580,1 55748U 23028H   24058.41693576 -.00000558  00000-0 -39004-4 0  9994,2 55748  70.0002 313.5104 0002812 271.0064  89.0773 14.98330258 55007,6950.192,96.107,574.011,570.103,0.0
55748.0,STARLINK-5580,PAYLOAD,2024-02-27 19:37:11,14.98332994,0.0002987,69.9996,312.4997,271.7354,88.3463,-2.8901e-05,-4.38e-06,0.0,0 STARLINK-5580,1 55748U 23028H   24058.81749306 -.00000438  00000-0 -28901-4 0  9992,2 55748  69.9996 312.4997 0002987 271.7354  88.3463 14.98332994 55069,6950.184,96.107,574.125,569.973,0.0
55748.0,STARLINK-5580,PAYLOAD,2024-02-27 22:49:27,14.98333053,0.0002967,69.9997,312.1631,272.1054,87.9765,-1.873e-05,-3.16e-06,0.0,0 STARLINK-5580,1 55748U 23028H   24058.95101262 -.00000316  00000-0 -18730-4 0  9994,2 55748  69.9997 312.1631 0002967 272.1054  87.9765 14.98333053 55081,6950.183,96.107,574.111,569.986,0.0
55748.0,STARLINK-5580,PAYLOAD,2024-02-28 10:02:23,14.98338472,0.0002793,70.0002,310.9847,272.8188,87.2652,-0.00017703,-2.205e-05,0.0,0 STARLINK-5580,1 55748U 23028H   24059.41833210 -.00002205  00000-0 -17703-3 0  9998,2 55748  70.0002 310.9847 0002793 272.8188  87.2652 14.98338472 55154,6950.167,96.106,573.973,570.091,0.0
55748.0,STARLINK-5580,PAYLOAD,2024-02-28 19:39:12,14.9832532,0.0002781,69.9998,309.9748,272.6083,87.4758,7.3282e-05,7.81e-06,0.0,0 STARLINK-5580,1 55748U 23028H   24059.81889514  .00000781  00000-0  73282-4 0  9990,2 55748  69.9998 309.9748 0002781 272.6083  87.4758 14.98325320 55216,6950.207,96.107,574.005,570.14,0.0
55748.0,STARLINK-5580,PAYLOAD,2024-02-28 22:51:28,14.98324976,0.0002798,69.9999,309.6382,272.4848,87.5991,6.4971e-05,6.82e-06,0.0,0 STARLINK-5580,1 55748U 23028H   24059.95241598  .00000682  00000-0  64971-4 0  9994,2 55748  69.9999 309.6382 0002798 272.4848  87.5991 14.98324976 55231,6950.208,96.107,574.018,570.129,0.0
55748.0,STARLINK-5580,PAYLOAD,2024-02-29 10:04:25,14.98329427,0.000273,70.0003,308.4605,275.3888,84.6959,-3.9666e-05,-5.66e-06,0.0,0 STARLINK-5580,1 55748U 23028H   24060.41973720 -.00000566  00000-0 -39666-4 0  9992,2 55748  70.0003 308.4605 0002730 275.3888  84.6959 14.98329427 55303,6950.195,96.107,573.957,570.162,0.0
55748.0,STARLINK-5580,PAYLOAD,2024-02-29 19:41:13,14.98328467,0.0002838,70.0002,307.4504,271.8566,88.2268,-1.4834e-05,-2.7e-06,0.0,0 STARLINK-5580,1 55748U 23028H   24060.82029731 -.00000270  00000-0 -14834-4 0  9993,2 55748  70.0002 307.4504 0002838 271.8566  88.2268 14.98328467 55364,6950.198,96.107,574.035,570.09,0.0
55748.0,STARLINK-5580,PAYLOAD,2024-02-29 22:53:29,14.98327209,0.000283,70.0002,307.1131,271.7558,88.3277,4.2963e-05,4.2e-06,0.0,0 STARLINK-5580,1 55748U 23028H   24060.95381650  .00000420  00000-0  42963-4 0  9997,2 55748  70.0002 307.1131 0002830 271.7558  88.3277 14.98327209 55385,6950.202,96.107,574.033,570.1,0.0
55748.0,STARLINK-5580,PAYLOAD,2024-03-01 10:06:25,14.98331182,0.0002869,70.0001,305.935,268.9712,91.1118,3.5154e-05,3.27e-06,0.0,0 STARLINK-5580,1 55748U 23028H   24061.42113413  .00000327  00000-0  35154-4 0  9990,2 55748  70.0001 305.9350 0002869 268.9712  91.1118 14.98331182 55454,6950.189,96.107,574.048,570.06,0.0
55748.0,STARLINK-5580,PAYLOAD,2024-03-01 19:43:14,14.98331227,0.0002933,69.9999,304.9252,269.2349,90.8474,7.6252e-05,8.17e-06,0.0,0 STARLINK-5580,1 55748U 23028H   24061.82169255  .00000817  00000-0  76252-4 0  9997,2 55748  69.9999 304.9252 0002933 269.2349  90.8474 14.98331227 55517,6950.189,96.107,574.093,570.016,0.0
55748.0,STARLINK-5580,PAYLOAD,2024-03-01 21:19:22,14.98331155,0.0002935,69.9998,304.7569,269.2095,90.8727,7.4645e-05,7.98e-06,0.0,0 STARLINK-5580,1 55748U 23028H   24061.88845264  .00000798  00000-0  74645-4 0  9996,2 55748  69.9998 304.7569 0002935 269.2095  90.8727 14.98331155 55527,6950.189,96.107,574.094,570.014,0.0
55748.0,STARLINK-5580,PAYLOAD,2024-03-02 02:07:46,14.98335992,0.0002908,69.9997,304.2518,268.9342,91.1484,9.0212e-05,9.84e-06,0.0,0 STARLINK-5580,1 55748U 23028H   24062.08872864  .00000984  00000-0  90212-4 0  9990,2 55748  69.9997 304.2518 0002908 268.9342  91.1484 14.98335992 55556,6950.174,96.107,574.06,570.018,0.0
55748.0,STARLINK-5580,PAYLOAD,2024-03-02 19:45:15,14.98330043,0.0002865,69.9996,302.4002,268.7987,91.2844,3.5148e-05,3.26e-06,0.0,0 STARLINK-5580,1 55748U 23028H   24062.82309327  .00000326  00000-0  35148-4 0  9998,2 55748  69.9996 302.4002 0002865 268.7987  91.2844 14.98330043 55663,6950.193,96.107,574.049,570.067,0.0
55748.0,STARLINK-5580,PAYLOAD,2024-03-02 21:21:23,14.98330137,0.0002865,69.9997,302.2318,268.8222,91.2608,3.5093e-05,3.26e-06,0.0,0 STARLINK-5580,1 55748U 23028H   24062.88985317  .00000326  00000-0  35093-4 0  9992,2 55748  69.9997 302.2318 0002865 268.8222  91.2608 14.98330137 55678,6950.192,96.107,574.049,570.066,0.0
55748.0,STARLINK-5580,PAYLOAD,2024-03-03 14:58:51,14.98333373,0.000278,69.9997,300.3805,269.8908,90.1932,-1.6811e-05,-2.94e-06,0.0,0 STARLINK-5580,1 55748U 23028H   24063.62421240 -.00000294  00000-0 -16811-4 0  9998,2 55748  69.9997 300.3805 0002780 269.8908  90.1932 14.98333373 55781,6950.182,96.107,573.98,570.115,0.0
55748.0,STARLINK-5580,PAYLOAD,2024-03-03 19:47:16,14.9831514,0.0002968,69.9993,299.8762,264.4959,95.5862,0.00036711,4.288e-05,0.0,0 STARLINK-5580,1 55748U 23028H   24063.82449371  .00004288  00000-0  36711-3 0  9990,2 55748  69.9993 299.8762 0002968 264.4959  95.5862 14.98315140 55813,6950.239,96.108,574.167,570.041,0.0
55748.0,STARLINK-5580,PAYLOAD,2024-03-03 21:23:23,14.98334415,0.0003011,69.9993,299.7082,267.6517,92.4298,4.8317e-05,4.84e-06,0.0,0 STARLINK-5580,1 55748U 23028H   24063.89124912  .00000484  00000-0  48317-4 0  9998,2 55748  69.9993 299.7082 0003011 267.6517  92.4298 14.98334415 55828,6950.179,96.107,574.137,569.952,0.0
55748.0,STARLINK-5580,PAYLOAD,2024-03-04 00:35:39,14.98338455,0.0002789,69.9994,299.3714,259.2463,100.8382,7.7088e-05,8.27e-06,0.0,0 STARLINK-5580,1 55748U 23028H   24064.02476449  .00000827  00000-0  77088-4 0  9997,2 55748  69.9994 299.3714 0002789 259.2463 100.8382 14.98338455 55843,6950.167,96.106,573.97,570.093,0.0
55748.0,STARLINK-5580,PAYLOAD,2024-03-04 08:36:19,14.98341973,0.0002903,69.9989,298.5277,270.0371,90.0456,2.0782e-05,1.55e-06,0.0,0 STARLINK-5580,1 55748U 23028H   24064.35856202  .00000155  00000-0  20782-4 0  9995,2 55748  69.9989 298.5277 0002903 270.0371  90.0456 14.98341973 55895,6950.156,96.106,574.038,570.003,0.0
55748.0,STARLINK-5580,PAYLOAD,2024-03-04 23:01:32,14.98335072,0.0002727,69.9995,297.0143,262.6532,97.4317,6.0732e-05,6.32e-06,0.0,0 STARLINK-5580,1 55748U 23028H   24064.95940269  .00000632  00000-0  60732-4 0  9997,2 55748  69.9995 297.0143 0002727 262.6532  97.4317 14.98335072 55988,6950.177,96.107,573.938,570.147,0.0
55748.0,STARLINK-5580,PAYLOAD,2024-03-05 02:13:48,14.98337023,0.0002834,69.9996,296.6775,268.1302,91.9533,7.6068e-05,8.15e-06,0.0,0 STARLINK-5580,1 55748U 23028H   24065.09292067  .00000815  00000-0  76068-4 0  9991,2 55748  69.9996 296.6775 0002834 268.1302  91.9533 14.98337023 56001,6950.171,96.107,574.006,570.066,0.0
55748.0,STARLINK-5580,PAYLOAD,2024-03-05 19:51:17,14.98328246,0.0002706,70.0011,294.828,246.1037,113.9839,-8.4744e-05,-1.104e-05,0.0,0 STARLINK-5580,1 55748U 23028H   24065.82729036 -.00001104  00000-0 -84744-4 0  9997,2 55748  70.0011 294.8280 0002706 246.1037 113.9839 14.98328246 56115,6950.198,96.107,573.944,570.183,0.0
55748.0,STARLINK-5580,PAYLOAD,2024-03-06 00:39:42,14.98322692,0.0002377,69.9999,294.3199,240.0293,120.0631,-0.00012224,-1.551e-05,0.0,0 STARLINK-5580,1 55748U 23028H   24066.02757588 -.00001551  00000-0 -12224-3 0  9992,2 55748  69.9999 294.3199 0002377 240.0293 120.0631 14.98322692 56143,6950.215,96.107,573.733,570.428,0.0
55748.0,STARLINK-5580,PAYLOAD,2024-03-06 19:53:18,14.98326588,0.0003106,69.9988,292.298,267.1204,92.96,6.9746e-06,-1e-07,0.0,0 STARLINK-5580,1 55748U 23028H   24066.82869083 -.00000010  00000-0  69746-5 0  9995,2 55748  69.9988 292.2980 0003106 267.1204  92.9600 14.98326588 56263,6950.203,96.107,574.227,569.91,0.0
